OBJECT_NAME,OBJECT_ID,EPOCH,MEAN_MOTION,ECCENTRICITY,INCLINATION,RA_OF_ASC_NODE,ARG_OF_PERICENTER,MEAN_ANOMALY,EPHEMERIS_TYPE,CLASSIFICATION_TYPE,NORAD_CAT_ID,ELEMENT_SET_NO,REV_AT_EPOCH,BSTAR,MEAN_MOTION_DOT,MEAN_MOTION_DDOT
INTELSAT 17 (IS-17),2010-065B,2026-06-06T22:26:09.182400,1.00272224,.00024365,0.0047,317.7319,124.1281,216.0160,0,U,37238,999,5314,0,.12E-6,0
BEIDOU-2 IGSO-2,2010-068A,2026-06-06T17:56:34.315296,1.00287050,.00549834,47.5684,271.9632,212.5902,147.2585,0,U,37256,999,5669,0,-.212E-5,0
EUTELSAT KA-SAT 9A,2010-069A,2026-06-06T22:04:11.985888,1.00273253,.00041276,0.0612,11.6967,119.4751,104.2070,0,U,37258,999,4390,0,.76E-6,0
HISPASAT 30W-5,2010-070A,2026-06-06T23:14:30.098688,1.00270824,.00051972,0.0606,106.7752,351.4282,115.8196,0,U,37264,999,5308,0,-.202E-5,0
KOREASAT 6,2010-070B,2026-06-06T21:04:35.103648,1.00271866,.00023405,0.0255,69.6522,12.8119,288.8662,0,U,37265,999,5666,0,-.98E-6,0
BEIDOU-2 IGSO-3,2011-013A,2026-06-04T15:13:36.073056,1.00271497,.00344466,62.3902,40.2715,185.4993,3.7397,0,U,37384,999,5553,0,-.179E-5,0
INTELSAT 28 (IS-28),2011-016A,2026-06-06T21:52:40.461888,1.00269278,.00039545,1.7788,82.7501,353.2316,115.8174,0,U,37392,999,5318,0,-.211E-5,0
YAHSAT 1A,2011-016B,2026-06-06T22:16:39.663840,1.00268191,.00030641,0.0194,306.3379,142.7305,192.9396,0,U,37393,999,4230,0,.115E-5,0
SBIRS GEO-1 (USA 230),2011-019A,2026-06-06T22:16:24.688128,1.00272441,.00021283,4.5146,53.1314,13.1908,214.9138,0,U,37481,999,5529,0,.113E-5,0
TELSTAR 14R,2011-021A,2026-06-06T21:43:41.324160,1.00272008,.00024729,0.0121,39.7453,25.6164,92.8851,0,U,37602,999,5573,0,-.266E-5,0
GSAT-8,2011-022A,2026-06-06T22:17:24.591840,1.00270787,.00022171,2.1037,81.9492,213.3712,349.4480,0,U,37605,999,5311,0,.99E-6,0
ST-2,2011-022B,2026-06-06T20:54:21.690432,1.00271362,.00018798,0.0134,51.8446,39.2478,205.8086,0,U,37606,999,5517,0,-.198E-5,0
ZHONGXING-10,2011-026A,2026-06-06T22:26:01.265568,1.00271325,.00037085,1.0198,84.3191,356.1578,236.9178,0,U,37677,999,5489,0,-.175E-5,0
SES-3,2011-035A,2026-06-06T21:32:19.913280,1.00271226,.00027644,1.2994,83.2017,347.8105,44.3787,0,U,37748,999,5449,0,-.88E-6,0
KAZSAT-2,2011-035B,2026-06-06T22:26:08.753856,1.00270219,.00012952,0.0364,247.0158,251.8084,179.5748,0,U,37749,999,5329,0,-.184E-5,0
BEIDOU-2 IGSO-4,2011-038A,2026-06-05T00:18:51.599808,1.00287701,.01590014,54.5979,165.7814,231.3624,313.8818,0,U,37763,999,5452,0,.56E-6,0
ASTRA 1N,2011-041A,2026-06-06T22:07:04.209600,1.00271717,.00063176,0.0778,33.2481,57.8368,155.2273,0,U,37775,999,4442,0,.134E-5,0
BSAT-3C (JCSAT-110R),2011-041B,2026-06-06T22:33:00.595872,1.00272694,.00004159,0.0215,316.6353,194.2986,192.6297,0,U,37776,999,5036,0,-.337E-5,0
PAKSAT-1R,2011-042A,2026-06-06T20:29:51.083808,1.00274272,.00033543,0.6612,84.7049,344.4100,171.6015,0,U,37779,999,5437,0,.168E-5,0
SES-2,2011-049A,2026-06-06T21:36:49.482144,1.00272172,.0002967,0.0414,118.0932,315.5922,58.8390,0,U,37809,999,5386,0,-.182E-5,0
ARABSAT-5C,2011-049B,2026-06-06T16:59:21.552576,1.00273187,.00032642,0.0583,25.9172,67.2581,76.7802,0,U,37810,999,5393,0,.137E-5,0
EUTELSAT 7 WEST A,2011-051A,2026-06-06T21:59:34.928736,1.00271354,.00042837,0.0606,350.2458,98.5071,129.1569,0,U,37816,999,5377,0,-.47E-6,0
QUETZSAT 1,2011-054A,2026-06-06T21:39:41.706720,1.00272609,.00028754,0.0433,68.1515,8.9306,66.1654,0,U,37826,999,4977,0,-.228E-5,0
INTELSAT 18 (IS-18),2011-056A,2026-06-06T21:10:19.553664,1.00272956,.00022511,0.0182,312.5605,137.1192,303.1997,0,U,37834,999,5370,0,.67E-6,0
EUTELSAT 16A,2011-057A,2026-06-06T22:06:11.794176,1.00270266,.00058361,0.0420,349.4670,89.1746,164.2255,0,U,37836,999,723,0,.117E-5,0
VIASAT-1,2011-059A,2026-06-06T16:20:49.993152,1.00271355,.00024656,0.0171,310.6440,125.1830,309.3848,0,U,37843,999,4721,0,-.1E-6,0
ASIASAT 7,2011-069A,2026-06-06T22:31:45.715584,1.00267193,.00014624,0.0160,340.8984,90.2359,267.6781,0,U,37933,999,4475,0,0,0
BEIDOU-2 IGSO-5,2011-073A,2026-06-06T19:12:21.798720,1.00275467,.01135482,47.6984,271.6762,221.6933,141.6840,0,U,37948,999,5303,0,-.158E-5,0
LUCH-5A,2011-074B,2026-06-06T14:15:51.287040,1.00269862,.00024028,8.7265,73.9638,12.4500,189.5697,0,U,37951,999,5294,0,-.37E-6,0
NIGCOMSAT 1R,2011-077A,2026-06-06T21:12:40.833216,1.00271332,.00026414,0.0226,211.0293,143.9472,260.9755,0,U,38014,999,5285,0,.159E-5,0
WGS F4 (USA 233),2012-003A,2026-06-06T22:26:53.682720,1.00271295,.00002323,0.0163,326.0965,307.8129,46.5976,0,U,38070,999,4404,0,-.201E-5,0
SES-4,2012-007A,2026-06-06T20:12:42.475392,1.00273082,.00022568,0.0254,28.4682,60.1199,87.8474,0,U,38087,999,5212,0,-.154E-5,0
BEIDOU-2 G5,2012-008A,2026-06-06T22:18:24.496416,1.00269909,.00094943,3.5477,69.7592,276.3012,302.5758,0,U,38091,999,5226,0,.71E-6,0
MUOS-1,2012-009A,2026-06-06T16:25:12.073728,1.00270764,.0058897,5.4556,47.1649,0.9979,353.2743,0,U,38093,999,5233,0,-.115E-5,0
INTELSAT 22 (IS-22),2012-011A,2026-06-06T22:22:16.624704,1.00273281,.00016062,0.0179,56.8144,8.3952,237.7974,0,U,38098,999,708,0,-.45E-6,0
APSTAR-7,2012-013A,2026-06-06T23:00:32.499936,1.00271383,.0003032,0.0329,78.2130,7.0825,231.7067,0,U,38107,999,5170,0,-.88E-6,0
YAHSAT 1B,2012-016A,2026-06-06T21:35:55.728384,1.00269584,.00027275,0.0875,90.9748,7.8884,168.0391,0,U,38245,999,4550,0,.14E-5,0
AEHF-2 (USA 235),2012-019A,2026-06-06T21:56:57.679872,1.00270507,.00023209,6.6280,57.5647,8.3244,142.1637,0,U,38254,999,688,0,-.123E-5,0
JCSAT-13,2012-023A,2026-06-06T22:37:00.214176,1.00272078,.00028778,0.0385,81.1481,10.7065,266.7608,0,U,38331,999,5143,0,-.342E-5,0
VINASAT-2,2012-023B,2026-06-06T22:39:14.998176,1.00272716,.00024404,0.0162,8.1590,79.3753,279.4879,0,U,38332,999,4655,0,-.315E-5,0
NIMIQ 6,2012-026A,2026-06-06T21:35:42.090144,1.00272097,.00028418,0.0068,319.4549,114.9985,53.6877,0,U,38342,999,5031,0,-.16E-5,0
ZHONGXING-2A,2012-028A,2026-06-06T22:29:38.419008,1.00271495,.00037303,1.4273,84.0145,32.6433,214.3396,0,U,38352,999,5119,0,-.279E-5,0
INTELSAT 19 (IS-19),2012-030A,2026-06-06T21:06:19.936224,1.00271500,.00031369,0.0143,11.1606,72.3765,294.3413,0,U,38356,999,5034,0,-.43E-6,0
ECHOSTAR 17,2012-035A,2026-06-06T14:40:26.429664,1.00270366,.00018395,0.0170,351.2269,86.7520,290.0609,0,U,38551,999,5095,0,0,0
METEOSAT-10 (MSG-3),2012-035B,2026-06-06T22:01:42.225312,1.00275739,.00016962,4.6466,61.0641,336.1143,188.7715,0,U,38552,999,5075,0,.8E-7,0
SES-5,2012-036A,2026-06-06T22:03:04.593024,1.00265273,.00019571,0.0517,308.6088,138.2057,144.2649,0,U,38652,999,4435,0,.46E-6,0
INTELSAT 20 (IS-20),2012-043A,2026-06-06T22:21:09.232704,1.00267985,.00018006,0.0055,91.1150,91.4425,116.5663,0,U,38740,999,5064,0,-.1E-6,0
HYLAS 2,2012-043B,2026-06-06T21:40:56.587008,1.00272012,.00027664,2.3999,81.1932,16.0492,50.7465,0,U,38741,999,5067,0,-.244E-5,0
INTELSAT 21 (IS-21),2012-045A,2026-06-06T21:45:11.180160,1.00272802,.00020493,0.0429,86.3239,357.0101,80.2957,0,U,38749,999,5042,0,-.271E-5,0
ASTRA 2F,2012-051A,2026-06-05T15:21:44.290080,1.00272396,.00008606,0.0508,257.3374,268.4840,346.8620,0,U,38778,999,4102,0,.162E-5,0
GSAT-10,2012-051B,2026-06-06T22:25:16.338432,1.00271851,.00080145,0.0175,262.3536,186.5935,225.7485,0,U,38779,999,4999,0,-.151E-5,0
INTELSAT 23 (IS-23),2012-057A,2026-06-06T21:46:33.548736,1.00276044,.0000581,0.0106,324.2395,121.7203,82.9866,0,U,38867,999,4985,0,-.271E-5,0
BEIDOU-2 G6,2012-059A,2026-06-06T20:42:56.335392,1.00275124,.00103896,4.3949,73.6310,324.3391,252.0259,0,U,38953,999,4980,0,-.162E-5,0
LUCH-5B,2012-061A,2026-06-05T23:41:51.203616,1.00274220,.00016665,10.4571,49.9907,137.7014,45.8723,0,U,38977,999,4949,0,-.127E-5,0
YAMAL 300K,2012-061B,2026-06-05T14:58:36.091776,1.00269940,.0001445,0.0157,266.8887,307.3217,87.4558,0,U,38978,999,4951,0,.83E-6,0
STAR ONE C3,2012-062A,2026-06-06T21:40:19.147296,1.00270168,.00025852,0.0180,349.0956,103.1514,53.1549,0,U,38991,999,4966,0,-.235E-5,0
EUTELSAT 21B,2012-062B,2026-06-06T23:45:46.933056,1.00270429,.00030152,0.0656,350.2525,81.4338,201.7335,0,U,38992,999,4972,0,.144E-5,0
ECHOSTAR 16,2012-065A,2026-06-06T21:44:11.275584,1.00268198,.00017192,0.0173,349.4506,91.7070,78.7133,0,U,39008,999,4954,0,0,0
ZHONGXING-12,2012-067A,2026-06-06T20:54:21.690432,1.00271483,.00033647,0.0484,96.0098,336.8546,223.5196,0,U,39017,999,4940,0,-.193E-5,0
EUTELSAT 70B,2012-069A,2026-06-06T22:21:46.673280,1.00271544,.00039685,0.0612,352.7250,76.1221,232.4254,0,U,39020,999,4940,0,-.3E-6,0
YAMAL 402,2012-070A,2026-06-07T00:16:45.571584,1.00271587,.00039285,1.2381,84.2891,348.2279,241.9924,0,U,39022,999,4929,0,.1E-5,0
SKYNET 5D,2012-075A,2026-06-06T22:16:39.663840,1.00272513,.00038815,0.0658,358.7892,85.3913,198.1021,0,U,39034,999,4905,0,.113E-5,0
MEXSAT 3,2012-075B,2026-06-06T21:28:57.736416,1.00268986,.00014335,0.0215,71.6799,356.6900,34.3975,0,U,39035,999,695,0,-.12E-6,0
TDRS 11,2013-004A,2026-06-06T21:11:56.897952,1.00265821,.00056682,3.5063,31.0950,15.3637,352.5532,0,U,39070,999,4659,0,.92E-6,0
AMAZONAS 3,2013-006A,2026-06-06T21:44:18.763872,1.00270685,.00021974,0.0301,188.4339,279.5837,52.3898,0,U,39078,999,4481,0,-.269E-5,0
AZERSPACE 1,2013-006B,2026-06-06T22:06:45.762336,1.00272083,.00014389,0.0333,74.6427,29.1074,169.2619,0,U,39079,999,4870,0,.147E-5,0
SBIRS GEO-2 (USA 241),2013-011A,2026-06-06T16:39:10.734336,1.00271159,.00021254,4.4680,52.5040,14.2079,28.3816,0,U,39120,999,4843,0,-.273E-5,0
EUTELSAT 117 WEST A,2013-012A,2026-06-06T14:37:41.694240,1.00272024,.00029046,0.0402,60.3643,18.8210,278.4613,0,U,39122,999,4832,0,0,0
ANIK G1,2013-014A,2026-06-06T16:23:04.777152,1.00272061,.00018065,0.0426,86.3337,342.7537,324.4772,0,U,39127,999,4814,0,-.61E-6,0
ZHONGXING-11,2013-020A,2026-06-05T20:45:34.723008,1.00269682,.00025429,0.0253,27.1934,48.5266,227.8531,0,U,39157,999,4778,0,-.277E-5,0
EUTELSAT 7B,2013-022A,2026-06-06T22:03:42.033600,1.00271069,.00051149,0.0676,8.1011,27.5766,197.5766,0,U,39163,999,4784,0,.62E-6,0
WGS F5 (USA 243),2013-024A,2026-06-06T21:46:41.037024,1.00271365,.00002574,0.0186,309.4972,113.6323,106.3627,0,U,39168,999,4707,0,-.271E-5,0
